MEAN_MOTION;ECCENTRICITY;INCLINATION;RA_OF_ASC_NODE;ARG_OF_PERICENTER;MEAN_ANOMALY;BSTAR;MEAN_MOTION_DOT;MEAN_MOTION_DDOT;TYPE
2.00564571;0.004509;55.1496;134.9595;206.6012;153.2345;0;1.0E-7;0;Navigation
2.00564571;0.004509;55.1496;134.9595;206.6012;153.2345;0;1.0E-7;0;Navigation
2.00564576;0.0045101;55.1497;134.9595;206.607;153.2285;0;1.0E-7;0;Navigation
2.00564587;0.0045127;55.15;134.9198;206.6275;153.211;0;1.6E-7;0;Navigation
2.00564582;0.0045151;55.1504;134.88;206.6713;153.1708;0;2.3E-7;0;Navigation
2.00564556;0.0045178;55.1506;134.8602;206.7041;153.1397;0;2.6E-7;0;Navigation
2.00564556;0.0045178;55.1506;134.8602;206.7041;153.1397;0;2.6E-7;0;Navigation
2.00564556;0.0045178;55.1506;134.8602;206.7041;153.1397;0;2.6E-7;0;Navigation
2.00564596;0.0045246;55.1514;134.761;206.8034;153.0446;0;2.8E-7;0;Navigation
2.00564626;0.0045262;55.1517;134.7213;206.8351;153.0112;0;2.1E-7;0;Navigation
2.00564638;0.0045275;55.1519;134.7014;206.8541;152.9906;0;1.6E-7;0;Navigation
2.00564633;0.0045302;55.152;134.6816;206.878;152.9647;0;1.1E-7;0;Navigation
2.00564648;0.0045321;55.1524;134.6419;206.9088;152.9295;0;-1.0E-8;0;Navigation
2.005646;0.0045348;55.1526;134.622;206.9312;152.9047;0;-7.0E-8;0;Navigation
2.005647;0.0045379;55.1529;134.5823;206.9821;152.8494;0;-1.6E-7;0;Navigation
2.00564753;0.0045409;55.1535;134.5228;207.0368;152.791;0;-2.0E-7;0;Navigation
2.00564728;0.0045424;55.1537;134.503;207.0533;152.7741;0;-1.9E-7;0;Navigation
2.00564751;0.0045442;55.1539;134.4832;207.0679;152.7595;0;-1.6E-7;0;Navigation
2.00564731;0.0045473;55.1543;134.4435;207.1178;152.7108;0;-7.0E-8;0;Navigation
2.00564731;0.0045473;55.1543;134.4435;207.1178;152.7108;0;-7.0E-8;0;Navigation
2.00564731;0.0045473;55.1543;134.4435;207.1178;152.7108;0;-7.0E-8;0;Navigation
2.00564839;0.0045531;55.1552;134.3444;207.215;152.6217;0;2.5E-7;0;Navigation
2.00564839;0.0045531;55.1552;134.3444;207.215;152.6217;0;2.5E-7;0;Navigation
2.00564839;0.0045531;55.1552;134.3444;207.215;152.6217;0;2.5E-7;0;Navigation
2.00564839;0.0045531;55.1552;134.3444;207.215;152.6217;0;2.5E-7;0;Navigation
2.00564839;0.0045531;55.1552;134.3444;207.215;152.6217;0;2.5E-7;0;Navigation
2.00564839;0.0045531;55.1552;134.3444;207.215;152.6217;0;2.5E-7;0;Navigation
2.00564746;0.0045638;55.1569;134.166;207.3801;152.4646;0;5.7E-7;0;Navigation
2.00564746;0.0045638;55.1569;134.166;207.3801;152.4646;0;5.7E-7;0;Navigation
2.00564705;0.0045667;55.1572;134.1264;207.4154;152.4268;0;5.6E-7;0;Navigation
2.00564726;0.0045669;55.1572;134.1264;207.4264;152.4156;0;5.6E-7;0;Navigation
2.00564726;0.0045669;55.1572;134.1264;207.4264;152.4156;0;5.6E-7;0;Navigation
2.00564701;0.00457;55.158;134.0471;207.5035;152.3294;0;5.0E-7;0;Navigation
2.00564701;0.00457;55.158;134.0471;207.5035;152.3294;0;5.0E-7;0;Navigation
2.00564676;0.0045725;55.1585;133.9877;207.5474;152.2779;0;4.6E-7;0;Navigation
2.00564658;0.0045735;55.1588;133.9678;207.5616;152.2615;0;4.5E-7;0;Navigation
2.00564594;0.0045759;55.1592;133.9282;207.5843;152.2357;0;4.5E-7;0;Navigation
2.0056464;0.0045769;55.1592;133.9282;207.5859;152.234;0;4.5E-7;0;Navigation
2.00564626;0.0045776;55.1594;133.9083;207.6076;152.2114;0;4.6E-7;0;Navigation
2.00564621;0.0045803;55.1598;133.8687;207.642;152.1765;0;5.0E-7;0;Navigation
2.00564588;0.0045826;55.1604;133.8092;207.6896;152.131;0;6.0E-7;0;Navigation
2.0056462;0.0045853;55.1608;133.7695;207.724;152.0986;0;6.6E-7;0;Navigation
2.00564608;0.0045864;55.161;133.7497;207.7423;152.0809;0;6.7E-7;0;Navigation
2.00564608;0.0045864;55.161;133.7497;207.7423;152.0809;0;6.7E-7;0;Navigation
2.00564608;0.0045864;55.161;133.7497;207.7423;152.0809;0;6.7E-7;0;Navigation
2.00564631;0.0045933;55.1622;133.6307;207.8133;152.0048;0;5.7E-7;0;Navigation
2.00564646;0.0045945;55.1624;133.6108;207.8246;151.9909;0;5.1E-7;0;Navigation
2.00564646;0.0045945;55.1624;133.6108;207.8246;151.9909;0;5.1E-7;0;Navigation
2.00564712;0.0046;55.1631;133.5315;207.8685;151.9347;0;2.7E-7;0;Navigation
2.00564716;0.0046029;55.1635;133.4918;207.8798;151.9179;0;1.8E-7;0;Navigation
2.00564747;0.0046052;55.164;133.4522;207.9048;151.8885;0;1.4E-7;0;Navigation
2.00564747;0.0046052;55.164;133.4522;207.9048;151.8885;0;1.4E-7;0;Navigation
2.00564774;0.0046063;55.1642;133.4324;207.9237;151.8681;0;1.4E-7;0;Navigation
2.00564766;0.0046079;55.1644;133.4125;207.9351;151.8556;0;1.5E-7;0;Navigation
2.00564773;0.0046088;55.1644;133.4126;207.9367;151.854;0;1.5E-7;0;Navigation
2.00564777;0.0046106;55.1648;133.373;207.9619;151.8281;0;2.1E-7;0;Navigation
2.00564777;0.0046106;55.1648;133.373;207.9619;151.8281;0;2.1E-7;0;Navigation
2.00564777;0.0046106;55.1648;133.373;207.9619;151.8281;0;2.1E-7;0;Navigation
2.00564818;0.0046157;55.166;133.2739;208.0102;151.7839;0;5.0E-7;0;Navigation
2.00564818;0.0046157;55.166;133.2739;208.0102;151.7839;0;5.0E-7;0;Navigation
2.00564812;0.0046165;55.1662;133.2541;208.0193;151.776;0;5.6E-7;0;Navigation
2.00564812;0.0046165;55.1662;133.2541;208.0193;151.776;0;5.6E-7;0;Navigation
2.0056482;0.0046201;55.1669;133.1748;208.0519;151.7474;0;7.5E-7;0;Navigation
2.00564831;0.0046216;55.1673;133.1352;208.0753;151.7243;0;8.0E-7;0;Navigation
2.00564791;0.0046232;55.1675;133.1154;208.0832;151.7159;0;8.1E-7;0;Navigation
2.00564773;0.0046244;55.1677;133.0956;208.094;151.7043;0;8.1E-7;0;Navigation
2.00564773;0.0046244;55.1677;133.0956;208.094;151.7043;0;8.1E-7;0;Navigation
2.00564744;0.0046274;55.1686;133.0164;208.1368;151.6539;0;7.7E-7;0;Navigation
2.00564744;0.0046274;55.1686;133.0164;208.1368;151.6539;0;7.7E-7;0;Navigation
2.00564689;0.0046289;55.169;132.9768;208.1508;151.6343;0;7.3E-7;0;Navigation
2.00564681;0.00463;55.1694;132.9372;208.1656;151.6135;0;6.9E-7;0;Navigation
2.00564681;0.00463;55.1694;132.9372;208.1656;151.6135;0;6.9E-7;0;Navigation
2.00564657;0.0046302;55.1693;132.9372;208.1587;151.6203;0;6.9E-7;0;Navigation
2.00564646;0.0046314;55.1697;132.8976;208.1745;151.5988;0;6.6E-7;0;Navigation
2.00564629;0.0046332;55.1702;132.8579;208.1801;151.5888;0;6.4E-7;0;Navigation
2.00564627;0.0046341;55.1704;132.8381;208.1844;151.5829;0;6.4E-7;0;Navigation
2.00564627;0.0046341;55.1704;132.8381;208.1844;151.5829;0;6.4E-7;0;Navigation
2.00564591;0.0046374;55.1712;132.7589;208.2091;151.5566;0;7.1E-7;0;Navigation
2.00564585;0.0046384;55.1714;132.7391;208.2169;151.5493;0;7.4E-7;0;Navigation
2.00564585;0.0046384;55.1714;132.7391;208.2169;151.5493;0;7.4E-7;0;Navigation
2.00564598;0.0046403;55.1719;132.6994;208.2307;151.5369;0;7.9E-7;0;Navigation
2.00564585;0.0046424;55.1723;132.6598;208.2413;151.5273;0;8.2E-7;0;Navigation
2.00564585;0.0046424;55.1723;132.6598;208.2413;151.5273;0;8.2E-7;0;Navigation
2.00564581;0.0046433;55.1725;132.64;208.2465;151.5221;0;8.2E-7;0;Navigation
2.00564581;0.0046433;55.1725;132.64;208.2465;151.5221;0;8.2E-7;0;Navigation
2.00564588;0.0046447;55.1727;132.6202;208.2498;151.5183;0;8.1E-7;0;Navigation
2.00564595;0.0046463;55.173;132.5806;208.258;151.5077;0;7.5E-7;0;Navigation
2.00564607;0.0046471;55.1731;132.5806;208.2462;151.5195;0;7.5E-7;0;Navigation
2.00564635;0.0046483;55.1734;132.5409;208.254;151.5073;0;6.5E-7;0;Navigation
2.00564642;0.0046503;55.1738;132.5013;208.2604;151.4949;0;5.2E-7;0;Navigation
2.00564641;0.0046515;55.174;132.4815;208.2567;151.4954;0;4.5E-7;0;Navigation
2.00564651;0.0046525;55.1742;132.4617;208.2629;151.4859;0;3.8E-7;0;Navigation
2.00564696;0.0046542;55.1746;132.422;208.2698;151.4728;0;2.6E-7;0;Navigation
2.00564707;0.0046578;55.175;132.3824;208.2681;151.4695;0;1.9E-7;0;Navigation
2.00564711;0.0046594;55.1754;132.3428;208.2793;151.4552;0;1.6E-7;0;Navigation
2.00564746;0.0046623;55.1758;132.3032;208.2812;151.452;0;2.0E-7;0;Navigation
2.00564794;0.0046641;55.1762;132.2636;208.2862;151.4474;0;2.7E-7;0;Navigation
2.0056481;0.0046662;55.1766;132.224;208.288;151.4476;0;3.8E-7;0;Navigation
2.0056479;0.0046656;55.1766;132.2241;208.2798;151.4558;0;3.8E-7;0;Navigation
2.00564798;0.0046673;55.177;132.1845;208.282;151.4562;0;4.9E-7;0;Navigation
2.00564782;0.0046684;55.1772;132.1647;208.2806;151.459;0;5.4E-7;0;Navigation
2.00564788;0.0046692;55.1774;132.1449;208.2787;151.4623;0;5.9E-7;0;Navigation
2.00564784;0.0046701;55.1775;132.1251;208.2763;151.4659;0;6.3E-7;0;Navigation
2.00564794;0.004671;55.1777;132.1053;208.2753;151.4679;0;6.6E-7;0;Navigation
2.00564774;0.0046718;55.1779;132.0855;208.2746;151.4694;0;6.9E-7;0;Navigation
2.00564754;0.0046721;55.1781;132.0657;208.2751;151.4693;0;7.1E-7;0;Navigation
2.00564744;0.0046742;55.1785;132.0261;208.2772;151.4669;0;7.2E-7;0;Navigation
2.00564757;0.004675;55.1787;132.0063;208.2785;151.4648;0;7.2E-7;0;Navigation
2.00564752;0.0046754;55.1789;131.9865;208.2792;151.4631;0;7.1E-7;0;Navigation
2.00564692;0.0046767;55.1793;131.9469;208.2815;151.4574;0;6.7E-7;0;Navigation
2.00564692;0.0046767;55.1793;131.9469;208.2815;151.4574;0;6.7E-7;0;Navigation
2.00564692;0.0046767;55.1793;131.9469;208.2815;151.4574;0;6.7E-7;0;Navigation
2.00564692;0.0046767;55.1793;131.9469;208.2815;151.4574;0;6.7E-7;0;Navigation
2.00564648;0.0046805;55.1806;131.8083;208.2639;151.4581;0;5.1E-7;0;Navigation
2.00564648;0.0046805;55.1806;131.8083;208.2639;151.4581;0;5.1E-7;0;Navigation
2.00564596;0.0046821;55.1809;131.7687;208.2448;151.4741;0;4.9E-7;0;Navigation
2.00564596;0.0046821;55.1809;131.7687;208.2448;151.4741;0;4.9E-7;0;Navigation
2.00564581;0.0046836;55.1813;131.7291;208.2353;151.4822;0;4.9E-7;0;Navigation
2.00564581;0.0046836;55.1813;131.7291;208.2353;151.4822;0;4.9E-7;0;Navigation
2.00564572;0.004686;55.1817;131.6895;208.2197;151.4983;0;5.2E-7;0;Navigation
2.00564558;0.0046881;55.1822;131.63;208.2279;151.4932;0;5.8E-7;0;Navigation
2.00564551;0.00469;55.1825;131.5905;208.2194;151.5042;0;6.1E-7;0;Navigation
2.00564541;0.0046917;55.1828;131.5508;208.2133;151.5116;0;6.0E-7;0;Navigation
2.00564541;0.0046917;55.1828;131.5508;208.2133;151.5116;0;6.0E-7;0;Navigation
2.00564571;0.0046947;55.1835;131.4716;208.1898;151.5321;0;4.6E-7;0;Navigation
2.00564588;0.0046956;55.1837;131.4517;208.1859;151.5341;0;3.9E-7;0;Navigation
2.00564591;0.0046967;55.1838;131.4319;208.174;151.5437;0;3.2E-7;0;Navigation
